#aV2022 10 21  0  0  0.00000000     288 DD+AD WGS84 FIT  NGA
## 2232 432000.00000000   300.00000000 59873 0.0000000000000
+   32     1  2  3  4  5  6  7  8  9 10 11 12 13 14 15 16 17
+         18 19 20 21 22 23 24 25 26 27 28 29 30 31 32  0  0
+          0  0  0  0  0  0  0  0  0  0  0  0  0  0  0  0  0
+          0  0  0  0  0  0  0  0  0  0  0  0  0  0  0  0  0
+          0  0  0  0  0  0  0  0  0  0  0  0  0  0  0  0  0
++         2  2  2  2  2  2  2  2  2  2  2  2  2  2  2  2  2
++         2  2  2  2  2  2  2  2  2  2  2  2  2  2  2  0  0
++         0  0  0  0  0  0  0  0  0  0  0  0  0  0  0  0  0
++         0  0  0  0  0  0  0  0  0  0  0  0  0  0  0  0  0
++         0  0  0  0  0  0  0  0  0  0  0  0  0  0  0  0  0
%c cc cc ccc ccc cccc cccc cccc cccc ccccc ccccc ccccc ccccc
%c cc cc ccc ccc cccc cccc cccc cccc ccccc ccccc ccccc ccccc
%f  0.0000000  0.000000000  0.00000000000  0.000000000000000
%f  0.0000000  0.000000000  0.00000000000  0.000000000000000
%i    0    0    0    0      0      0      0      0         0
%i    0    0    0    0      0      0      0      0         0
/*      NGA, ST. LOUIS,MO.                                  
/*   EPHEMERIS COMPUTED FROM 2 DAYS OF DATA                 
/*   EPOCHA v8 SMOOTHER                                     
/*   G2139 IERS2010 SATIGS SATAPC                           
*  2022 10 21 11 50  0.00000000
P  1   9383.258713  13441.910971 -21282.228897    264.068101                    
V  1 -26078.294702   1998.574658 -10058.428320     -0.059949                    
P  2  -8084.032777 -13919.070027  21755.411643   -641.430284                    
V  2  25717.559084  -4615.447755   6977.858465      0.016320                    
P  3  11161.952117  23450.052546  -5959.764169   -366.644792                    
V  3  -5942.313350  -4865.789806 -30814.863189     -0.036263                    
P  4   2816.234320  20184.852304  16980.947932   -100.000323                    
V  4 -11603.520506  18302.087795 -19930.455596      0.062514                    
P  5  -2119.094023 -21089.521997  15752.748486   -101.230012                    
V  5  13853.955179  15072.336311  21917.765308     -0.014486                    
P  6  24600.380623  -6741.574290   7601.449716    497.345799                    
V  6   9619.595743   1081.266976 -30354.787916      0.105611                    
P  7  22867.804330   7186.064960  12373.536926    296.465148                    
V  7 -14702.725955   3187.011776  25735.307628     -0.039647                    
P  8  -4399.482835  24522.096893  -8700.769149    -89.922448                    
V  8  -7158.963281   8948.233214  29329.715531     -0.017908                    
P  9  11973.404990  10159.139759  21337.952605   -280.167107                    
V  9 -11768.095492  24645.971197  -5152.391438      0.053059                    
P 10 -18215.138593  -3870.345286 -18906.578308     -8.440019                    
V 10 -12833.792490 -20524.326204  16129.330715     -0.016232                    
P 11  16554.041518 -12095.281340  16868.423423    -28.525644                    
V 11  21453.594918   1231.905377 -20210.532747     -0.047273                    
P 12  -9094.798848 -24251.338151  -6393.062220   -294.827080                    
V 12   5956.291800   5483.918063 -30453.305931     -0.044551                    
P 13  12793.776425 -22998.500753  -2901.623655    410.099806                    
V 13   4162.249297  -1434.051902  31776.647799      0.070138                    
P 14  18826.970580   5965.181629 -17803.602988    -92.719462                    
V 14  10654.453886  20018.833688  17853.298423      0.041526                    
P 15    965.883332 -24932.776320  -9109.015149    -19.081175                    
V 15   6798.360389  -9463.156755  28281.820755      0.031712                    
P 16  -5167.203883  17435.092287  18912.642854   -526.473769                    
V 16 -13493.440465 -20805.507969  15717.618205     -0.004021                    
P 17  17314.520811  -4348.435839 -19248.078178    670.786650                    
V 17 -11347.356601  22675.576739 -14926.679745      0.035628                    
P 18 -23661.210697  -5923.892515  10681.398575      6.923394                    
V 18  13361.784228  -2794.628085  27903.823608     -0.135017                    
P 19  18747.766628 -13649.403941 -12946.217412    226.732251                    
V 19  -6778.489332  14773.283394 -26110.684262      0.050742                    
P 20   9089.484420 -12875.952266  21407.247859    476.597950                    
V 20  18978.324288  19478.221700   3432.155525     -0.030771                    
P 21    266.438021  14995.505376 -21267.116506    157.630866                    
V 21 -28258.453770   3924.835109   3075.931505     -0.006936                    
P 22 -17773.361659  16702.068974  -9880.330467    349.734202                    
V 22   4329.766852 -12777.732402 -28368.475240      0.070049                    
P 23 -19739.628488 -13484.651735 -11724.387705     -1.088341                    
V 23  -7076.524811 -13166.485914  26946.893544     -0.001251                    
P 24  -5511.653966 -15166.511159 -21456.779218     91.345881                    
V 24  26183.374949  -4404.168029  -3245.569871     -0.148118                    
P 25 -17156.090594 -20091.217633   3627.685200    384.624582                    
V 25   -561.822766  -5623.899042 -31006.150016      0.038721                    
P 26 -12773.689446   9158.581120  21322.424907    233.234300                    
V 26 -16868.576684 -21570.463838   -511.609783      0.013265                    
P 27 -12618.953050  22999.343041   2166.688384    194.174500                    
V 27  -1271.432796  -3981.031554  32071.057800     -0.068152                    
P 28  14890.070515  -3358.261333 -21207.626018    326.091468                    
V 28  13158.571753  24879.180513   5419.404601     -0.052827                    
P 29  -9683.248845 -12129.735173  21498.091339   -561.323537                    
V 29  14117.440745 -23440.687117  -6932.564542     -0.029617                    
P 30  26661.981719   -708.928638   1330.677814   -537.173633                    
V 30  -1360.061031   3458.751875  30975.346628      0.001257                    
P 31 -24401.053360   7174.435441   8279.458611   -197.534511                    
V 31 -10712.911930  -1865.002273 -28966.708008     -0.012941                    
P 32 -17640.115420   7774.587736 -18035.120120   -270.324042                    
V 32   8310.112571 -21820.120664 -17583.321443     -0.120625                    
EOF
